{"type": "FeatureCollection", "features": [ {"type": "Feature", "properties": {"norad_id": 30771, "name": "FENGYUN 1C DEB", "group": "fengyun-1c-debris", "lat": 48.76551187470679, "lon": 165.505694571449, "alt_km": 753.4038292881341, "timestamp": "2025-12-25T09:48:52.568913+00:00", "meta": {"OBJECT_NAME": "FENGYUN 1C DEB", "OBJECT_ID": "1999-025AUH", "EPOCH": "2025-12-24T21:33:52.197120", "MEAN_MOTION": 14.43358428, "ECCENTRICITY": 0.00222076, "INCLINATION": 98.9064, "RA_OF_ASC_NODE": 334.6661, "ARG_OF_PERICENTER": 263.2435, "MEAN_ANOMALY": 96.6226, "EPHEMERIS_TYPE": 0, "CLASSIFICATION_TYPE": "U", "NORAD_CAT_ID": 30771, "ELEMENT_SET_NO": 999, "REV_AT_EPOCH": 97239, "BSTAR": 0.0025716156, "MEAN_MOTION_DOT": 8.662e-05, "MEAN_MOTION_DDOT": 0}, "tle": {"line1": "1 30771U 99025AUH 25358.89852080  .00008662  00000+0  25716-2 0  9990", "line2": "2 30771  98.9064 334.6661 0022207 263.2435  96.6226 14.43358428972396"}}, "geometry": {"type": "Point", "coordinates": [165.505694571449, 48.76551187470679]}}, {"type": "Feature", "properties": {"norad_id": 30802, "name": "FENGYUN 1C DEB", "group": "fengyun-1c-debris", "lat": 50.64474257674971, "lon": -82.62289046741928, "alt_km": 785.9137052935412, "timestamp": "2025-12-25T09:48:52.568923+00:00", "meta": {"OBJECT_NAME": "FENGYUN 1C DEB", "OBJECT_ID": "1999-025AUL", "EPOCH": "2025-12-24T17:12:48.233088", "MEAN_MOTION": 14.32552374, "ECCENTRICITY": 0.00175264, "INCLINATION": 98.8368, "RA_OF_ASC_NODE": 85.7375, "ARG_OF_PERICENTER": 4.177, "MEAN_ANOMALY": 158.8046, "EPHEMERIS_TYPE": 0, "CLASSIFICATION_TYPE": "U", "NORAD_CAT_ID": 30802, "ELEMENT_SET_NO": 999, "REV_AT_EPOCH": 97374, "BSTAR": 0.0016809951, "MEAN_MOTION_DOT": 4.524e-05, "MEAN_MOTION_DDOT": 0}, "tle": {"line1": "1 30802U 99025AUL 25358.71722492  .00004524  00000+0  16810-2 0  9997", "line2": "2 30802  98.8368  85.7375 0017526   4.1770 158.8046 14.32552374973740"}}, "geometry": {"type": "Point", "coordinates": [-82.62289046741928, 50.64474257674971]}}, {"type": "Feature", "properties": {"norad_id": 30803, "name": "FENGYUN 1C DEB", "group": "fengyun-1c-debris", "lat": -26.28143775151623, "lon": -151.6498917692189, "alt_km": 800.6837620298447, "timestamp": "2025-12-25T09:48:52.568933+00:00", "meta": {"OBJECT_NAME": "FENGYUN 1C DEB", "OBJECT_ID": "1999-025AUM", "EPOCH": "2025-12-23T00:47:11.482656", "MEAN_MOTION": 14.11292129, "ECCENTRICITY": 0.01076426, "INCLINATION": 99.2448, "RA_OF_ASC_NODE": 30.5174, "ARG_OF_PERICENTER": 172.9934, "MEAN_ANOMALY": 206.8565, "EPHEMERIS_TYPE": 0, "CLASSIFICATION_TYPE": "U", "NORAD_CAT_ID": 30803, "ELEMENT_SET_NO": 999, "REV_AT_EPOCH": 96144, "BSTAR": 0.0013219036, "MEAN_MOTION_DOT": 2.475e-05, "MEAN_MOTION_DDOT": 0}, "tle": {"line1": "1 30803U 99025AUM 25357.03277179  .00002475  00000+0  13219-2 0  9992", "line2": "2 30803  99.2448  30.5174 0107642 172.9934 206.8565 14.11292129961445"}}, "geometry": {"type": "Point", "coordinates": [-151.6498917692189, -26.28143775151623]}}, {"type": "Feature", "properties": {"norad_id": 30804, "name": "FENGYUN 1C DEB", "group": "fengyun-1c-debris", "lat": 46.11717661666161, "lon": 56.27999004344295, "alt_km": 738.8357950853597, "timestamp": "2025-12-25T09:48:52.568943+00:00", "meta": {"OBJECT_NAME": "FENGYUN 1C DEB", "OBJECT_ID": "1999-025AUN", "EPOCH": "2025-12-24T22:51:39.563136", "MEAN_MOTION": 14.54666808, "ECCENTRICITY": 0.0185978, "INCLINATION": 98.893, "RA_OF_ASC_NODE": 65.1642, "ARG_OF_PERICENTER": 153.5807, "MEAN_ANOMALY": 26.7094, "EPHEMERIS_TYPE": 0, "CLASSIFICATION_TYPE": "U", "NORAD_CAT_ID": 30804, "ELEMENT_SET_NO": 999, "REV_AT_EPOCH": 99654, "BSTAR": 0.00046688062, "MEAN_MOTION_DOT": 2.456e-05, "MEAN_MOTION_DDOT": 0}, "tle": {"line1": "1 30804U 99025AUN 25358.95254124  .00002456  00000+0  46688-3 0  9996", "line2": "2 30804  98.8930  65.1642 0185978 153.5807  26.7094 14.54666808996544"}}, "geometry": {"type": "Point", "coordinates": [56.27999004344295, 46.11717661666161]}}, {"type": "Feature", "properties": {"norad_id": 30805, "name": "FENGYUN 1C DEB", "group": "fengyun-1c-debris", "lat": 2.4794981304520096, "lon": 41.28830957304193, "alt_km": 906.9583727985237, "timestamp": "2025-12-25T09:48:52.568953+00:00", "meta": {"OBJECT_NAME": "FENGYUN 1C DEB", "OBJECT_ID": "1999-025AUP", "EPOCH": "2025-12-24T20:57:50.595264", "MEAN_MOTION": 14.0292926, "ECCENTRICITY": 0.00706643, "INCLINATION": 98.8197, "RA_OF_ASC_NODE": 41.1548, "ARG_OF_PERICENTER": 249.9183, "MEAN_ANOMALY": 289.1981, "EPHEMERIS_TYPE": 0, "CLASSIFICATION_TYPE": "U", "NORAD_CAT_ID": 30805, "ELEMENT_SET_NO": 999, "REV_AT_EPOCH": 96130, "BSTAR": 0.0010004954, "MEAN_MOTION_DOT": 1.543e-05, "MEAN_MOTION_DDOT": 0}, "tle": {"line1": "1 30805U 99025AUP 25358.87350226  .00001543  00000+0  10005-2 0  9997", "line2": "2 30805  98.8197  41.1548 0070664 249.9183 289.1981 14.02929260961304"}}, "geometry": {"type": "Point", "coordinates": [41.28830957304193, 2.4794981304520096]}}, {"type": "Feature", "properties": {"norad_id": 30806, "name": "FENGYUN 1C DEB", "group": "fengyun-1c-debris", "lat": -25.44436483968776, "lon": 29.53500065571462, "alt_km": 1106.7424923828412, "timestamp": "2025-12-25T09:48:52.568963+00:00", "meta": {"OBJECT_NAME": "FENGYUN 1C DEB", "OBJECT_ID": "1999-025AUQ", "EPOCH": "2025-12-24T20:45:44.138880", "MEAN_MOTION": 13.70438541, "ECCENTRICITY": 0.02678621, "INCLINATION": 99.035, "RA_OF_ASC_NODE": 24.6819, "ARG_OF_PERICENTER": 98.5447, "MEAN_ANOMALY": 76.6973, "EPHEMERIS_TYPE": 0, "CLASSIFICATION_TYPE": "U", "NORAD_CAT_ID": 30806, "ELEMENT_SET_NO": 999, "REV_AT_EPOCH": 93861, "BSTAR": 0.00071141173, "MEAN_MOTION_DOT": 7.72e-06, "MEAN_MOTION_DDOT": 0}, "tle": {"line1": "1 30806U 99025AUQ 25358.86509420  .00000772  00000+0  71141-3 0  9991", "line2": "2 30806  99.0350  24.6819 0267862  98.5447  76.6973 13.70438541938614"}}, "geometry": {"type": "Point", "coordinates": [29.53500065571462, -25.44436483968776]}}, {"type": "Feature", "properties": {"norad_id": 30809, "name": "FENGYUN 1C DEB", "group": "fengyun-1c-debris", "lat": -51.094224813274, "lon": 99.60824135782583, "alt_km": 837.9401036336885, "timestamp": "2025-12-25T09:48:52.568973+00:00", "meta": {"OBJECT_NAME": "FENGYUN 1C DEB", "OBJECT_ID": "1999-025AUT", "EPOCH": "2025-12-23T04:17:49.751520", "MEAN_MOTION": 14.29314737, "ECCENTRICITY": 0.00521844, "INCLINATION": 98.7888, "RA_OF_ASC_NODE": 86.3085, "ARG_OF_PERICENTER": 142.2717, "MEAN_ANOMALY": 218.2142, "EPHEMERIS_TYPE": 0, "CLASSIFICATION_TYPE": "U", "NORAD_CAT_ID": 30809, "ELEMENT_SET_NO": 999, "REV_AT_EPOCH": 97236, "BSTAR": 0.0017567777, "MEAN_MOTION_DOT": 4.495e-05, "MEAN_MOTION_DDOT": 0}, "tle": {"line1": "1 30809U 99025AUT 25357.17904805  .00004495  00000+0  17568-2 0  9991", "line2": "2 30809  98.7888  86.3085 0052184 142.2717 218.2142 14.29314737972362"}}, "geometry": {"type": "Point", "coordinates": [99.60824135782583, -51.094224813274]}}, {"type": "Feature", "properties": {"norad_id": 30810, "name": "FENGYUN 1C DEB", "group": "fengyun-1c-debris", "lat": -81.23405032744549, "lon": -107.90805665356135, "alt_km": 924.1874379575493, "timestamp": "2025-12-25T09:48:52.568983+00:00", "meta": {"OBJECT_NAME": "FENGYUN 1C DEB", "OBJECT_ID": "1999-025AUU", "EPOCH": "2025-12-23T03:30:35.133408", "MEAN_MOTION": 14.04241497, "ECCENTRICITY": 0.01798853, "INCLINATION": 98.6617, "RA_OF_ASC_NODE": 168.6141, "ARG_OF_PERICENTER": 25.4923, "MEAN_ANOMALY": 335.4984, "EPHEMERIS_TYPE": 0, "CLASSIFICATION_TYPE": "U", "NORAD_CAT_ID": 30810, "ELEMENT_SET_NO": 999, "REV_AT_EPOCH": 94529, "BSTAR": 0.0028608678, "MEAN_MOTION_DOT": 5.209e-05, "MEAN_MOTION_DDOT": 0}, "tle": {"line1": "1 30810U 99025AUU 25357.14623997  .00005209  00000+0  28609-2 0  9992", "line2": "2 30810  98.6617 168.6141 0179885  25.4923 335.4984 14.04241497945292"}}, "geometry": {"type": "Point", "coordinates": [-107.90805665356135, -81.23405032744549]}}, {"type": "Feature", "properties": {"norad_id": 30811, "name": "FENGYUN 1C DEB", "group": "fengyun-1c-debris", "lat": 70.67482986331252, "lon": 11.366242988319472, "alt_km": 913.9481419247968, "timestamp": "2025-12-25T09:48:52.568993+00:00", "meta": {"OBJECT_NAME": "FENGYUN 1C DEB", "OBJECT_ID": "1999-025AUV", "EPOCH": "2025-12-24T01:44:19.374144", "MEAN_MOTION": 13.61876924, "ECCENTRICITY": 0.02779162, "INCLINATION": 98.7823, "RA_OF_ASC_NODE": 36.3167, "ARG_OF_PERICENTER": 16.5271, "MEAN_ANOMALY": 344.4713, "EPHEMERIS_TYPE": 0, "CLASSIFICATION_TYPE": "U", "NORAD_CAT_ID": 30811, "ELEMENT_SET_NO": 999, "REV_AT_EPOCH": 93021, "BSTAR": 0.001582937, "MEAN_MOTION_DOT": 1.538e-05, "MEAN_MOTION_DDOT": 0}, "tle": {"line1": "1 30811U 99025AUV 25358.07244646  .00001538  00000+0  15829-2 0  9997", "line2": "2 30811  98.7823  36.3167 0277916  16.5271 344.4713 13.61876924930210"}}, "geometry": {"type": "Point", "coordinates": [11.366242988319472, 70.67482986331252]}}, {"type": "Feature", "properties": {"norad_id": 30814, "name": "FENGYUN 1C DEB", "group": "fengyun-1c-debris", "lat": -58.83714257831558, "lon": -7.643080777441611, "alt_km": 704.3651519502582, "timestamp": "2025-12-25T09:48:52.569004+00:00", "meta": {"OBJECT_NAME": "FENGYUN 1C DEB", "OBJECT_ID": "1999-025AUY", "EPOCH": "2025-12-23T22:10:12.895104", "MEAN_MOTION": 14.60690949, "ECCENTRICITY": 0.0030489, "INCLINATION": 99.0828, "RA_OF_ASC_NODE": 335.3904, "ARG_OF_PERICENTER": 196.9166, "MEAN_ANOMALY": 217.365, "EPHEMERIS_TYPE": 0, "CLASSIFICATION_TYPE": "U", "NORAD_CAT_ID": 30814, "ELEMENT_SET_NO": 999, "REV_AT_EPOCH": 97905, "BSTAR": 0.0025004, "MEAN_MOTION_DOT": 0.00012225, "MEAN_MOTION_DDOT": 0}, "tle": {"line1": "1 30814U 99025AUY 25357.92376036  .00012225  00000+0  25004-2 0  9993", "line2": "2 30814  99.0828 335.3904 0030489 196.9166 217.3650 14.60690949979055"}}, "geometry": {"type": "Point", "coordinates": [-7.643080777441611, -58.83714257831558]}}]}